{
  "type": "FeatureCollection",
  "features": [
    {
      "type": "Feature",
      "properties": {
        "norad_id": 33412,
        "name": "COSMO-SKYMED 3",
        "group": "resource",
        "lat": -47.5424021877265,
        "lon": -146.57529639506646,
        "alt_km": 568.3397013758522,
        "timestamp": "2025-12-20T05:41:49.674907+00:00",
        "meta_object_name": "COSMO-SKYMED 3",
        "meta_object_id": "2008-054A",
        "meta_epoch": "2025-12-19T21:56:06.453312",
        "meta_mean_motion": 15.05423109,
        "meta_eccentricity": 0.00168567,
        "meta_inclination": 97.8468,
        "meta_ra_of_asc_node": 204.4269,
        "meta_arg_of_pericenter": 147.8142,
        "meta_mean_anomaly": 212.4117,
        "meta_ephemeris_type": 0,
        "meta_classification_type": "U",
        "meta_norad_cat_id": 33412,
        "meta_element_set_no": 999,
        "meta_rev_at_epoch": 92995,
        "meta_bstar": 0.00044734165,
        "meta_mean_motion_dot": 6.377e-05,
        "meta_mean_motion_ddot": 0,
        "tle_line1": "1 33412U 08054A   25353.91396358  .00006377  00000+0  44734-3 0  9999",
        "tle_line2": "2 33412  97.8468 204.4269 0016856 147.8142 212.4117 15.05423109929959"
      },
      "geometry": {
        "type": "Point",
        "coordinates": [
          -146.57529639506646,
          -47.5424021877265
        ]
      }
    },
    {
      "type": "Feature",
      "properties": {
        "norad_id": 33446,
        "name": "YAOGAN-4",
        "group": "resource",
        "lat": 41.014455007839,
        "lon": -82.69016211888386,
        "alt_km": 619.8446005176493,
        "timestamp": "2025-12-20T05:41:49.674920+00:00",
        "meta_object_name": "YAOGAN-4",
        "meta_object_id": "2008-061A",
        "meta_epoch": "2025-12-19T10:04:29.303904",
        "meta_mean_motion": 14.8270055,
        "meta_eccentricity": 0.0013167,
        "meta_inclination": 97.919,
        "meta_ra_of_asc_node": 283.4536,
        "meta_arg_of_pericenter": 299.8838,
        "meta_mean_anomaly": 60.1067,
        "meta_ephemeris_type": 0,
        "meta_classification_type": "U",
        "meta_norad_cat_id": 33446,
        "meta_element_set_no": 999,
        "meta_rev_at_epoch": 91902,
        "meta_bstar": 0.00012167,
        "meta_mean_motion_dot": 9.29e-06,
        "meta_mean_motion_ddot": 0,
        "tle_line1": "1 33446U 08061A   25353.41978361  .00000929  00000+0  12167-3 0  9991",
        "tle_line2": "2 33446  97.9190 283.4536 0013167 299.8838  60.1067 14.82700550919026"
      },
      "geometry": {
        "type": "Point",
        "coordinates": [
          -82.69016211888386,
          41.014455007839
        ]
      }
    },
    {
      "type": "Feature",
      "properties": {
        "norad_id": 33492,
        "name": "GOSAT (IBUKI)",
        "group": "resource",
        "lat": 44.54059094909731,
        "lon": 94.70302270253464,
        "alt_km": 664.741754162379,
        "timestamp": "2025-12-20T05:41:49.674931+00:00",
        "meta_object_name": "GOSAT (IBUKI)",
        "meta_object_id": "2009-002A",
        "meta_epoch": "2025-12-19T21:18:37.538208",
        "meta_mean_motion": 14.67538307,
        "meta_eccentricity": 0.00010049,
        "meta_inclination": 98.0772,
        "meta_ra_of_asc_node": 102.3919,
        "meta_arg_of_pericenter": 100.7372,
        "meta_mean_anomaly": 259.3946,
        "meta_ephemeris_type": 0,
        "meta_classification_type": "U",
        "meta_norad_cat_id": 33492,
        "meta_element_set_no": 999,
        "meta_rev_at_epoch": 90516,
        "meta_bstar": 0.00011204226,
        "meta_mean_motion_dot": 5.87e-06,
        "meta_mean_motion_ddot": 0,
        "tle_line1": "1 33492U 09002A   25353.88793447  .00000587  00000+0  11204-3 0  9990",
        "tle_line2": "2 33492  98.0772 102.3919 0001004 100.7372 259.3946 14.67538307905169"
      },
      "geometry": {
        "type": "Point",
        "coordinates": [
          94.70302270253464,
          44.54059094909731
        ]
      }
    },
    {
      "type": "Feature",
      "properties": {
        "norad_id": 35681,
        "name": "DEIMOS-1",
        "group": "resource",
        "lat": -37.08854517333431,
        "lon": 160.37252188251026,
        "alt_km": 652.1055368862744,
        "timestamp": "2025-12-20T05:41:49.674942+00:00",
        "meta_object_name": "DEIMOS-1",
        "meta_object_id": "2009-041A",
        "meta_epoch": "2025-12-19T23:21:14.931936",
        "meta_mean_motion": 14.74964433,
        "meta_eccentricity": 0.00026178,
        "meta_inclination": 97.7141,
        "meta_ra_of_asc_node": 154.2392,
        "meta_arg_of_pericenter": 67.5886,
        "meta_mean_anomaly": 292.5601,
        "meta_ephemeris_type": 0,
        "meta_classification_type": "U",
        "meta_norad_cat_id": 35681,
        "meta_element_set_no": 999,
        "meta_rev_at_epoch": 88046,
        "meta_bstar": 0.00012453759,
        "meta_mean_motion_dot": 7.9e-06,
        "meta_mean_motion_ddot": 0,
        "tle_line1": "1 35681U 09041A   25353.97308949  .00000790  00000+0  12454-3 0  9998",
        "tle_line2": "2 35681  97.7141 154.2392 0002617  67.5886 292.5601 14.74964433880462"
      },
      "geometry": {
        "type": "Point",
        "coordinates": [
          160.37252188251026,
          -37.08854517333431
        ]
      }
    },
    {
      "type": "Feature",
      "properties": {
        "norad_id": 35682,
        "name": "DUBAISAT-1",
        "group": "resource",
        "lat": -67.02579748796036,
        "lon": -74.51532040124394,
        "alt_km": 648.5616177168695,
        "timestamp": "2025-12-20T05:41:49.674953+00:00",
        "meta_object_name": "DUBAISAT-1",
        "meta_object_id": "2009-041B",
        "meta_epoch": "2025-12-19T22:03:33.977664",
        "meta_mean_motion": 14.74622186,
        "meta_eccentricity": 0.00092705,
        "meta_inclination": 97.9798,
        "meta_ra_of_asc_node": 124.4935,
        "meta_arg_of_pericenter": 288.7349,
        "meta_mean_anomaly": 71.2853,
        "meta_ephemeris_type": 0,
        "meta_classification_type": "U",
        "meta_norad_cat_id": 35682,
        "meta_element_set_no": 999,
        "meta_rev_at_epoch": 87867,
        "meta_bstar": 0.00014158498,
        "meta_mean_motion_dot": 8.94e-06,
        "meta_mean_motion_ddot": 0,
        "tle_line1": "1 35682U 09041B   25353.91914326  .00000894  00000+0  14158-3 0  9993",
        "tle_line2": "2 35682  97.9798 124.4935 0009270 288.7349  71.2853 14.74622186878675"
      },
      "geometry": {
        "type": "Point",
        "coordinates": [
          -74.51532040124394,
          -67.02579748796036
        ]
      }
    },
    {
      "type": "Feature",
      "properties": {
        "norad_id": 35931,
        "name": "OCEANSAT-2",
        "group": "resource",
        "lat": -24.562088485291888,
        "lon": 170.28854568418421,
        "alt_km": 912.2499754126557,
        "timestamp": "2025-12-20T05:41:49.674964+00:00",
        "meta_object_name": "OCEANSAT-2",
        "meta_object_id": "2009-051A",
        "meta_epoch": "2025-12-19T23:34:30.961920",
        "meta_mean_motion": 13.99623203,
        "meta_eccentricity": 0.00160297,
        "meta_inclination": 98.2217,
        "meta_ra_of_asc_node": 353.8481,
        "meta_arg_of_pericenter": 26.0736,
        "meta_mean_anomaly": 334.1235,
        "meta_ephemeris_type": 0,
        "meta_classification_type": "U",
        "meta_norad_cat_id": 35931,
        "meta_element_set_no": 999,
        "meta_rev_at_epoch": 85426,
        "meta_bstar": -6.3379606e-05,
        "meta_mean_motion_dot": -1.3e-06,
        "meta_mean_motion_ddot": 0,
        "tle_line1": "1 35931U 09051A   25353.98230280 -.00000130  00000+0 -63380-4 0  9995",
        "tle_line2": "2 35931  98.2217 353.8481 0016029  26.0736 334.1235 13.99623203854260"
      },
      "geometry": {
        "type": "Point",
        "coordinates": [
          170.28854568418421,
          -24.562088485291888
        ]
      }
    },
    {
      "type": "Feature",
      "properties": {
        "norad_id": 35946,
        "name": "WORLDVIEW-2 (WV-2)",
        "group": "resource",
        "lat": -80.95260701239333,
        "lon": 134.72555277955604,
        "alt_km": 776.02251145228,
        "timestamp": "2025-12-20T05:41:49.674974+00:00",
        "meta_object_name": "WORLDVIEW-2 (WV-2)",
        "meta_object_id": "2009-055A",
        "meta_epoch": "2025-12-19T21:44:57.429600",
        "meta_mean_motion": 14.37726898,
        "meta_eccentricity": 0.00049475,
        "meta_inclination": 98.478,
        "meta_ra_of_asc_node": 64.8924,
        "meta_arg_of_pericenter": 53.1686,
        "meta_mean_anomaly": 306.9954,
        "meta_ephemeris_type": 0,
        "meta_classification_type": "U",
        "meta_norad_cat_id": 35946,
        "meta_element_set_no": 999,
        "meta_rev_at_epoch": 84988,
        "meta_bstar": 5.2881661e-05,
        "meta_mean_motion_dot": 1.15e-06,
        "meta_mean_motion_ddot": 0,
        "tle_line1": "1 35946U 09055A   25353.90622025  .00000115  00000+0  52882-4 0  9995",
        "tle_line2": "2 35946  98.4780  64.8924 0004947  53.1686 306.9954 14.37726898849889"
      },
      "geometry": {
        "type": "Point",
        "coordinates": [
          134.72555277955604,
          -80.95260701239333
        ]
      }
    }
  ]
}